[{"OBJECT_NAME":"STARLETTE","OBJECT_ID":"1975-010A","EPOCH":"2026-03-15T06:08:09.622752","MEAN_MOTION":13.82349248,"ECCENTRICITY":0.02055875,"INCLINATION":49.8221,"RA_OF_ASC_NODE":115.3591,"ARG_OF_PERICENTER":112.7297,"MEAN_ANOMALY":249.5466,"EPHEMERIS_TYPE":0,"CLASSIFICATION_TYPE":"U","NORAD_CAT_ID":7646,"ELEMENT_SET_NO":999,"REV_AT_EPOCH":58154,"BSTAR":8.636672e-6,"MEAN_MOTION_DOT":-1.34e-6,"MEAN_MOTION_DDOT":0},{"OBJECT_NAME":"LAGEOS 1","OBJECT_ID":"1976-039A","EPOCH":"2026-03-14T21:09:47.424096","MEAN_MOTION":6.38664871,"ECCENTRICITY":0.00446631,"INCLINATION":109.8157,"RA_OF_ASC_NODE":147.0602,"ARG_OF_PERICENTER":322.4845,"MEAN_ANOMALY":209.7624,"EPHEMERIS_TYPE":0,"CLASSIFICATION_TYPE":"U","NORAD_CAT_ID":8820,"ELEMENT_SET_NO":999,"REV_AT_EPOCH":90711,"BSTAR":0,"MEAN_MOTION_DOT":0,"MEAN_MOTION_DDOT":0},{"OBJECT_NAME":"AJISAI (EGS)","OBJECT_ID":"1986-061A","EPOCH":"2026-03-15T07:47:14.301312","MEAN_MOTION":12.44515679,"ECCENTRICITY":0.00112833,"INCLINATION":50.0084,"RA_OF_ASC_NODE":76.0197,"ARG_OF_PERICENTER":301.502,"MEAN_ANOMALY":71.7644,"EPHEMERIS_TYPE":0,"CLASSIFICATION_TYPE":"U","NORAD_CAT_ID":16908,"ELEMENT_SET_NO":999,"REV_AT_EPOCH":46870,"BSTAR":5.1550826e-5,"MEAN_MOTION_DOT":-9.0e-7,"MEAN_MOTION_DDOT":0},{"OBJECT_NAME":"COSMOS 1989 (ETALON 1)","OBJECT_ID":"1989-001C","EPOCH":"2026-03-14T01:53:42.917280","MEAN_MOTION":2.13156113,"ECCENTRICITY":0.00234193,"INCLINATION":64.8905,"RA_OF_ASC_NODE":75.4467,"ARG_OF_PERICENTER":217.5929,"MEAN_ANOMALY":205.2239,"EPHEMERIS_TYPE":0,"CLASSIFICATION_TYPE":"U","NORAD_CAT_ID":19751,"ELEMENT_SET_NO":999,"REV_AT_EPOCH":28934,"BSTAR":0,"MEAN_MOTION_DOT":5.4e-7,"MEAN_MOTION_DDOT":0},{"OBJECT_NAME":"COSMOS 2024 (ETALON 2)","OBJECT_ID":"1989-039C","EPOCH":"2026-03-14T23:46:47.729280","MEAN_MOTION":2.13204627,"ECCENTRICITY":0.00204675,"INCLINATION":64.991,"RA_OF_ASC_NODE":313.7828,"ARG_OF_PERICENTER":213.3504,"MEAN_ANOMALY":330.4605,"EPHEMERIS_TYPE":0,"CLASSIFICATION_TYPE":"U","NORAD_CAT_ID":20026,"ELEMENT_SET_NO":999,"REV_AT_EPOCH":28649,"BSTAR":0,"MEAN_MOTION_DOT":-1.1e-7,"MEAN_MOTION_DDOT":0},{"OBJECT_NAME":"LAGEOS 2","OBJECT_ID":"1992-070B","EPOCH":"2026-03-15T02:17:46.306176","MEAN_MOTION":6.4729341,"ECCENTRICITY":0.01377274,"INCLINATION":52.6763,"RA_OF_ASC_NODE":326.1292,"ARG_OF_PERICENTER":146.1803,"MEAN_ANOMALY":244.7165,"EPHEMERIS_TYPE":0,"CLASSIFICATION_TYPE":"U","NORAD_CAT_ID":22195,"ELEMENT_SET_NO":999,"REV_AT_EPOCH":78933,"BSTAR":0,"MEAN_MOTION_DOT":-9.0e-8,"MEAN_MOTION_DDOT":0},{"OBJECT_NAME":"STELLA","OBJECT_ID":"1993-061B","EPOCH":"2026-03-15T06:31:04.391040","MEAN_MOTION":14.27467683,"ECCENTRICITY":0.00070043,"INCLINATION":98.783,"RA_OF_ASC_NODE":138.1445,"ARG_OF_PERICENTER":142.7279,"MEAN_ANOMALY":305.5121,"EPHEMERIS_TYPE":0,"CLASSIFICATION_TYPE":"U","NORAD_CAT_ID":22824,"ELEMENT_SET_NO":999,"REV_AT_EPOCH":69137,"BSTAR":4.053216e-6,"MEAN_MOTION_DOT":-3.5e-7,"MEAN_MOTION_DDOT":0},{"OBJECT_NAME":"LARETS","OBJECT_ID":"2003-042F","EPOCH":"2026-03-15T06:24:11.720448","MEAN_MOTION":14.63850162,"ECCENTRICITY":0.00116745,"INCLINATION":98.4026,"RA_OF_ASC_NODE":234.5558,"ARG_OF_PERICENTER":334.6709,"MEAN_ANOMALY":25.3919,"EPHEMERIS_TYPE":0,"CLASSIFICATION_TYPE":"U","NORAD_CAT_ID":27944,"ELEMENT_SET_NO":999,"REV_AT_EPOCH":19962,"BSTAR":2.3936402e-5,"MEAN_MOTION_DOT":7.5e-7,"MEAN_MOTION_DDOT":0},{"OBJECT_NAME":"LARES","OBJECT_ID":"2012-006A","EPOCH":"2026-03-15T07:44:30.549984","MEAN_MOTION":12.54932243,"ECCENTRICITY":0.0007168,"INCLINATION":69.4873,"RA_OF_ASC_NODE":92.5761,"ARG_OF_PERICENTER":143.9523,"MEAN_ANOMALY":216.1988,"EPHEMERIS_TYPE":0,"CLASSIFICATION_TYPE":"U","NORAD_CAT_ID":38077,"ELEMENT_SET_NO":999,"REV_AT_EPOCH":64529,"BSTAR":-2.4449199e-5,"MEAN_MOTION_DOT":-4.2e-7,"MEAN_MOTION_DDOT":0},{"OBJECT_NAME":"LARES-2","OBJECT_ID":"2022-080A","EPOCH":"2026-03-06T00:34:32.699712","MEAN_MOTION":6.38965015,"ECCENTRICITY":0.00053097,"INCLINATION":70.1755,"RA_OF_ASC_NODE":340.7064,"ARG_OF_PERICENTER":356.7815,"MEAN_ANOMALY":3.2821,"EPHEMERIS_TYPE":0,"CLASSIFICATION_TYPE":"U","NORAD_CAT_ID":53105,"ELEMENT_SET_NO":999,"REV_AT_EPOCH":8507,"BSTAR":0,"MEAN_MOTION_DOT":-2.8e-7,"MEAN_MOTION_DDOT":0}]
